{
  "type": "FeatureCollection",
  "features": [
    {
      "type": "Feature",
      "properties": {
        "norad_id": 41772,
        "name": "SKYSAT-C5",
        "group": "resource",
        "lat": -64.43011841192067,
        "lon": -165.94530512747485,
        "alt_km": 467.73150195870767,
        "timestamp": "2025-12-11T07:02:23.391167+00:00",
        "meta_object_name": "SKYSAT-C5",
        "meta_object_id": "2016-058C",
        "meta_epoch": "2025-12-10T20:35:21.800544",
        "meta_mean_motion": 15.35309955,
        "meta_eccentricity": 0.00024491,
        "meta_inclination": 97.0761,
        "meta_ra_of_asc_node": 28.684,
        "meta_arg_of_pericenter": 138.9206,
        "meta_mean_anomaly": 221.2223,
        "meta_ephemeris_type": 0,
        "meta_classification_type": "U",
        "meta_norad_cat_id": 41772,
        "meta_element_set_no": 999,
        "meta_rev_at_epoch": 51487,
        "meta_bstar": 0.00044384128,
        "meta_mean_motion_dot": 0.00015157,
        "meta_mean_motion_ddot": 0,
        "tle_line1": "1 41772U 16058C   25344.85789121  .00015157  00000+0  44384-3 0  9994",
        "tle_line2": "2 41772  97.0761  28.6840 0002449 138.9206 221.2223 15.35309955514873"
      },
      "geometry": {
        "type": "Point",
        "coordinates": [
          -165.94530512747485,
          -64.43011841192067
        ]
      }
    },
    {
      "type": "Feature",
      "properties": {
        "norad_id": 41773,
        "name": "SKYSAT-C2",
        "group": "resource",
        "lat": -63.651807312930046,
        "lon": 175.43980117694255,
        "alt_km": 464.32138171725273,
        "timestamp": "2025-12-11T07:02:23.391177+00:00",
        "meta_object_name": "SKYSAT-C2",
        "meta_object_id": "2016-058D",
        "meta_epoch": "2025-12-10T08:06:25.640064",
        "meta_mean_motion": 15.37180734,
        "meta_eccentricity": 0.0004477,
        "meta_inclination": 97.0364,
        "meta_ra_of_asc_node": 8.9661,
        "meta_arg_of_pericenter": 40.507,
        "meta_mean_anomaly": 319.6508,
        "meta_ephemeris_type": 0,
        "meta_classification_type": "U",
        "meta_norad_cat_id": 41773,
        "meta_element_set_no": 999,
        "meta_rev_at_epoch": 51599,
        "meta_bstar": 0.0004509,
        "meta_mean_motion_dot": 0.00016358,
        "meta_mean_motion_ddot": 0,
        "tle_line1": "1 41773U 16058D   25344.33779676  .00016358  00000+0  45090-3 0  9991",
        "tle_line2": "2 41773  97.0364   8.9661 0004477  40.5070 319.6508 15.37180734515991"
      },
      "geometry": {
        "type": "Point",
        "coordinates": [
          175.43980117694255,
          -63.651807312930046
        ]
      }
    },
    {
      "type": "Feature",
      "properties": {
        "norad_id": 41774,
        "name": "SKYSAT-C3",
        "group": "resource",
        "lat": 35.744824029005294,
        "lon": 14.08396875808058,
        "alt_km": 430.6700571985357,
        "timestamp": "2025-12-11T07:02:23.391188+00:00",
        "meta_object_name": "SKYSAT-C3",
        "meta_object_id": "2016-058E",
        "meta_epoch": "2025-12-10T19:59:53.945664",
        "meta_mean_motion": 15.44284919,
        "meta_eccentricity": 0.00016396,
        "meta_inclination": 96.9301,
        "meta_ra_of_asc_node": 18.6678,
        "meta_arg_of_pericenter": 106.607,
        "meta_mean_anomaly": 253.536,
        "meta_ephemeris_type": 0,
        "meta_classification_type": "U",
        "meta_norad_cat_id": 41774,
        "meta_element_set_no": 999,
        "meta_rev_at_epoch": 51696,
        "meta_bstar": 0.00057044033,
        "meta_mean_motion_dot": 0.00026221,
        "meta_mean_motion_ddot": 0,
        "tle_line1": "1 41774U 16058E   25344.83326326  .00026221  00000+0  57044-3 0  9999",
        "tle_line2": "2 41774  96.9301  18.6678 0001639 106.6070 253.5360 15.44284919516966"
      },
      "geometry": {
        "type": "Point",
        "coordinates": [
          14.08396875808058,
          35.744824029005294
        ]
      }
    },
    {
      "type": "Feature",
      "properties": {
        "norad_id": 41785,
        "name": "ALSAT 1B",
        "group": "resource",
        "lat": -82.20314321504293,
        "lon": 84.17876911127635,
        "alt_km": 669.003325474313,
        "timestamp": "2025-12-11T07:02:23.391198+00:00",
        "meta_object_name": "ALSAT 1B",
        "meta_object_id": "2016-059C",
        "meta_epoch": "2025-12-10T23:17:25.271232",
        "meta_mean_motion": 14.72072248,
        "meta_eccentricity": 0.00106608,
        "meta_inclination": 97.7814,
        "meta_ra_of_asc_node": 356.8362,
        "meta_arg_of_pericenter": 108.093,
        "meta_mean_anomaly": 252.144,
        "meta_ephemeris_type": 0,
        "meta_classification_type": "U",
        "meta_norad_cat_id": 41785,
        "meta_element_set_no": 999,
        "meta_rev_at_epoch": 49288,
        "meta_bstar": 0.00011632241,
        "meta_mean_motion_dot": 6.85e-06,
        "meta_mean_motion_ddot": 0,
        "tle_line1": "1 41785U 16059C   25344.97043138  .00000685  00000+0  11632-3 0  9993",
        "tle_line2": "2 41785  97.7814 356.8362 0010660 108.0930 252.1440 14.72072248492886"
      },
      "geometry": {
        "type": "Point",
        "coordinates": [
          84.17876911127635,
          -82.20314321504293
        ]
      }
    },
    {
      "type": "Feature",
      "properties": {
        "norad_id": 41787,
        "name": "PATHFINDER 1",
        "group": "resource",
        "lat": 13.109528562331532,
        "lon": -13.698579361222873,
        "alt_km": 664.2485958031375,
        "timestamp": "2025-12-11T07:02:23.391208+00:00",
        "meta_object_name": "PATHFINDER 1",
        "meta_object_id": "2016-059E",
        "meta_epoch": "2025-12-10T17:53:12.304320",
        "meta_mean_motion": 14.67315559,
        "meta_eccentricity": 0.00300544,
        "meta_inclination": 97.8139,
        "meta_ra_of_asc_node": 347.6114,
        "meta_arg_of_pericenter": 87.2578,
        "meta_mean_anomaly": 273.2067,
        "meta_ephemeris_type": 0,
        "meta_classification_type": "U",
        "meta_norad_cat_id": 41787,
        "meta_element_set_no": 999,
        "meta_rev_at_epoch": 49207,
        "meta_bstar": 0.0002356788,
        "meta_mean_motion_dot": 1.292e-05,
        "meta_mean_motion_ddot": 0,
        "tle_line1": "1 41787U 16059E   25344.74528130  .00001292  00000+0  23568-3 0  9996",
        "tle_line2": "2 41787  97.8139 347.6114 0030054  87.2578 273.2067 14.67315559492076"
      },
      "geometry": {
        "type": "Point",
        "coordinates": [
          -13.698579361222873,
          13.109528562331532
        ]
      }
    },
    {
      "type": "Feature",
      "properties": {
        "norad_id": 41790,
        "name": "SCATSAT 1",
        "group": "resource",
        "lat": -53.37887902900941,
        "lon": 53.057482375095425,
        "alt_km": 678.8489920933962,
        "timestamp": "2025-12-11T07:02:23.391218+00:00",
        "meta_object_name": "SCATSAT 1",
        "meta_object_id": "2016-059H",
        "meta_epoch": "2025-12-10T21:32:38.931648",
        "meta_mean_motion": 14.78926535,
        "meta_eccentricity": 0.00562002,
        "meta_inclination": 98.1464,
        "meta_ra_of_asc_node": 41.5448,
        "meta_arg_of_pericenter": 133.8153,
        "meta_mean_anomaly": 226.7725,
        "meta_ephemeris_type": 0,
        "meta_classification_type": "U",
        "meta_norad_cat_id": 41790,
        "meta_element_set_no": 999,
        "meta_rev_at_epoch": 7375,
        "meta_bstar": 0.00034373421,
        "meta_mean_motion_dot": 2.547e-05,
        "meta_mean_motion_ddot": 0,
        "tle_line1": "1 41790U 16059H   25344.89767282  .00002547  00000+0  34373-3 0  9999",
        "tle_line2": "2 41790  98.1464  41.5448 0056200 133.8153 226.7725 14.78926535 73751"
      },
      "geometry": {
        "type": "Point",
        "coordinates": [
          53.057482375095425,
          -53.37887902900941
        ]
      }
    },
    {
      "type": "Feature",
      "properties": {
        "norad_id": 41875,
        "name": "GOKTURK 1A",
        "group": "resource",
        "lat": 64.27781946668357,
        "lon": 74.96689229626773,
        "alt_km": 677.2398338375579,
        "timestamp": "2025-12-11T07:02:23.391229+00:00",
        "meta_object_name": "GOKTURK 1A",
        "meta_object_id": "2016-073A",
        "meta_epoch": "2025-12-10T23:57:06.657408",
        "meta_mean_motion": 14.62776193,
        "meta_eccentricity": 0.00012522,
        "meta_inclination": 98.1425,
        "meta_ra_of_asc_node": 237.3863,
        "meta_arg_of_pericenter": 78.3831,
        "meta_mean_anomaly": 281.7511,
        "meta_ephemeris_type": 0,
        "meta_classification_type": "U",
        "meta_norad_cat_id": 41875,
        "meta_element_set_no": 999,
        "meta_rev_at_epoch": 48131,
        "meta_bstar": 0.00016917795,
        "meta_mean_motion_dot": 8.16e-06,
        "meta_mean_motion_ddot": 0,
        "tle_line1": "1 41875U 16073A   25344.99799372  .00000816  00000+0  16918-3 0  9997",
        "tle_line2": "2 41875  98.1425 237.3863 0001252  78.3831 281.7511 14.62776193481316"
      },
      "geometry": {
        "type": "Point",
        "coordinates": [
          74.96689229626773,
          64.27781946668357
        ]
      }
    }
  ]
}